     3.03           N: GNSS NAV DATA    G: GPS              RINEX VERSION / TYPE
RTKCONV 2.4.3 b34                       20240517 134740 UTC PGM / RUN BY / DATE 
format: RTCM 3                                              COMMENT             
log: C:\rtklib_realTime_PPP\log\CTWN00ZAF0_A00BKG0_nav_log_2COMMENT             
                                                            END OF HEADER       
G05 2024 05 17 12 00 00 -.173020176589D-03 -.136424205266D-11  .000000000000D+00
      .310000000000D+02  .205000000000D+02  .434053794369D-08  .141826595446D+01
      .966712832451D-06  .583998858929D-02  .649318099022D-05  .515361206055D+04
      .475200000000D+06 -.428408384323D-07 -.301388646499D+01 -.102445483208D-06
      .971521944909D+00  .263437500000D+03  .124746873264D+01 -.814569644381D-08
      .265368196508D-09  .100000000000D+01  .231400000000D+04  .000000000000D+00
      .200000000000D+01  .000000000000D+00 -.107102096081D-07  .310000000000D+02
      .462332000000D+06  .400000000000D+01
G06 2024 05 17 12 00 00  .268565490842D-03 -.196678229258D-10  .000000000000D+00
      .460000000000D+02 -.156250000000D+01  .365300930536D-08 -.935639477094D+00
     -.912696123123D-07  .300346734002D-02  .912696123123D-05  .515362137794D+04
      .475200000000D+06 -.838190317154D-07  .228441736553D+01  .558793544769D-08
      .989709978216D+00  .221281250000D+03 -.690461886909D+00 -.766139055624D-08
     -.975040614355D-10  .100000000000D+01  .231400000000D+04  .000000000000D+00
      .200000000000D+01  .000000000000D+00  .372529029846D-08  .460000000000D+02
      .462332000000D+06  .400000000000D+01
G09 2024 05 17 12 00 00  .199630856514D-03  .140971678775D-10  .000000000000D+00
      .410000000000D+02 -.482812500000D+02  .462876423518D-08  .150982781729D+01
     -.248849391937D-05  .268608657643D-02  .593438744545D-05  .515366669655D+04
      .475200000000D+06  .558793544769D-07 -.194366643899D+01 -.316649675369D-07
      .958147487009D+00  .263562500000D+03  .198364111731D+01 -.817141180067D-08
      .225009372544D-10  .000000000000D+00  .231400000000D+04  .000000000000D+00
      .200000000000D+01  .000000000000D+00  .931322574615D-09  .410000000000D+02
      .462332000000D+06  .000000000000D+00
G12 2024 05 17 12 00 00 -.506115611643D-03 -.329691829393D-11  .000000000000D+00
      .107000000000D+03  .608437500000D+02  .480234289400D-08 -.253462688774D+01
      .320374965668D-05  .880878942553D-02  .635348260403D-05  .515365084267D+04
      .475200000000D+06  .135973095894D-06  .244303743866D+00  .521540641785D-07
      .962881402138D+00  .258625000000D+03  .144654226938D+01 -.804997817105D-08
      .246795994329D-09  .100000000000D+01  .231400000000D+04  .000000000000D+00
      .200000000000D+01  .000000000000D+00 -.125728547573D-07  .107000000000D+03
      .462332000000D+06  .400000000000D+01
G15 2024 05 17 12 00 00  .159986782819D-03  .409272615798D-11  .000000000000D+00
      .480000000000D+02 -.424687500000D+02  .534807991185D-08  .982510133262D-01
     -.217370688915D-05  .155963375000D-01  .545941293240D-05  .515364892197D+04
      .475200000000D+06 -.253319740295D-06 -.207134606685D+01  .130385160446D-06
      .935067657527D+00  .262906250000D+03  .130834288978D+01 -.882179603464D-08
     -.332156692802D-10  .100000000000D+01  .231400000000D+04  .000000000000D+00
      .200000000000D+01  .000000000000D+00 -.102445483208D-07  .480000000000D+02
      .462332000000D+06  .400000000000D+01
G16 2024 05 17 12 00 00 -.289338640869D-03  .100044417195D-10  .000000000000D+00
      .500000000000D+02  .556562500000D+02  .479877131666D-08  .196165516434D+01
      .270828604698D-05  .139184455620D-01  .685267150402D-05  .515377619362D+04
      .475200000000D+06 -.340864062309D-06  .262173484235D+00 -.180676579475D-06
      .962364860394D+00  .251156250000D+03  .838306444863D+00 -.811748098281D-08
      .174650132022D-09  .100000000000D+01  .231400000000D+04  .000000000000D+00
      .200000000000D+01  .000000000000D+00 -.102445483208D-07  .500000000000D+02
      .462332000000D+06  .400000000000D+01
G18 2024 05 17 12 00 00 -.611911062151D-03 -.568434188608D-11  .000000000000D+00
      .500000000000D+02 -.518750000000D+01  .389373361821D-08 -.920285044423D+00
     -.378116965294D-06  .407872546930D-02  .995025038719D-05  .515361427116D+04
      .475200000000D+06  .838190317154D-07  .228863261476D+01 -.130385160446D-06
      .974536853760D+00  .196593750000D+03 -.305206175261D+01 -.776960934970D-08
     -.155006456641D-09  .100000000000D+01  .231400000000D+04  .000000000000D+00
      .200000000000D+01  .000000000000D+00 -.838190317154D-08  .562000000000D+03
      .462332000000D+06  .400000000000D+01
G23 2024 05 17 12 00 00  .227604992688D-03  .943600753089D-11  .000000000000D+00
      .770000000000D+02  .233437500000D+02  .400588114674D-08 -.211303910776D+01
      .121630728245D-05  .413910252973D-02  .669993460178D-05  .515371231270D+04
      .475200000000D+06 -.689178705215D-07 -.299418570710D+01 -.279396772385D-07
      .979366332550D+00  .261187500000D+03 -.296439510812D+01 -.785889878325D-08
      .394659296287D-09  .100000000000D+01  .231400000000D+04  .000000000000D+00
      .200000000000D+01  .000000000000D+00 -.838190317154D-08  .845000000000D+03
      .462332000000D+06  .400000000000D+01
G25 2024 05 17 12 00 00  .495869200677D-03  .682121026330D-12  .000000000000D+00
      .630000000000D+02  .613437500000D+02  .499985112101D-08 -.256192159194D+01
      .316463410854D-05  .117309929337D-01  .675208866596D-05  .515356999588D+04
      .475200000000D+06  .227242708206D-06  .157885160139D+00 -.707805156708D-07
      .950826952776D+00  .242500000000D+03  .108972661956D+01 -.813748181592D-08
      .304298389535D-09  .100000000000D+01  .231400000000D+04  .000000000000D+00
      .200000000000D+01  .000000000000D+00  .512227416039D-08  .630000000000D+02
      .462332000000D+06  .400000000000D+01
G26 2024 05 17 12 00 00  .151556450874D-03 -.568434188608D-11  .000000000000D+00
      .480000000000D+02  .603125000000D+02  .537915263473D-08  .290637074466D+01
      .304356217384D-05  .886344804894D-02  .729970633984D-05  .515363686562D+04
      .475200000000D+06 -.109896063805D-06  .956212761757D-01 -.124797224998D-06
      .931591587157D+00  .223625000000D+03  .540685375933D+00 -.828427364468D-08
      .200365488884D-09  .100000000000D+01  .231400000000D+04  .000000000000D+00
      .200000000000D+01  .000000000000D+00  .651925802231D-08  .480000000000D+02
      .462332000000D+06  .400000000000D+01
G27 2024 05 17 12 00 00 -.243885442615D-04 -.181898940355D-11  .000000000000D+00
      .350000000000D+02 -.111875000000D+02  .481662920337D-08  .111507581387D+01
     -.393018126488D-06  .125617807498D-01  .553578138351D-05  .515367680740D+04
      .475200000000D+06 -.124797224998D-06  .121512530065D+01  .115483999252D-06
      .962194238795D+00  .276875000000D+03  .792908388366D+00 -.842106505688D-08
     -.438232539859D-09  .100000000000D+01  .231400000000D+04  .000000000000D+00
      .200000000000D+01  .000000000000D+00  .186264514923D-08  .350000000000D+02
      .462332000000D+06  .400000000000D+01
G29 2024 05 17 12 00 00 -.598094891757D-03  .147792889038D-11  .000000000000D+00
      .760000000000D+02 -.186562500000D+02  .445947146917D-08  .107252967667D+01
     -.114366412163D-05  .291192880832D-02  .562146306038D-05  .515359286880D+04
      .475200000000D+06  .353902578354D-07  .129832984165D+01 -.298023223877D-07
      .971332700363D+00  .271750000000D+03  .253039952262D+01 -.813248160764D-08
     -.441089801732D-09  .100000000000D+01  .231400000000D+04  .000000000000D+00
      .200000000000D+01  .000000000000D+00 -.977888703346D-08  .760000000000D+02
      .462332000000D+06  .400000000000D+01
G01 2024 05 17 12 00 00  .273127574474D-03 -.500222085975D-11  .000000000000D+00
      .460000000000D+02  .579062500000D+02  .610739725475D-08  .250248914788D+01
      .282935798168D-05  .133993007476D-01  .687316060066D-05  .515375777626D+04
      .475200000000D+06 -.745058059692D-08  .191866015853D+00 -.217929482460D-06
      .954924229364D+00  .242187500000D+03  .103107358753D+01 -.797604652007D-08
      .168221292806D-09  .100000000000D+01  .231400000000D+04  .000000000000D+00
      .200000000000D+01  .630000000000D+02 -.195577740669D-07  .460000000000D+02
      .462332000000D+06  .400000000000D+01
G11 2024 05 17 12 00 00 -.664268620312D-03 -.920863385545D-11  .000000000000D+00
      .850000000000D+02  .646875000000D+01  .417231665088D-08  .339240536764D+00
      .325962901115D-06  .127790449187D-02  .922009348869D-05  .515371317863D+04
      .475200000000D+06  .298023223877D-07  .231770298844D+01  .726431608200D-07
      .966245253525D+00  .205156250000D+03 -.256826292049D+01 -.795640284469D-08
     -.100004165575D-09  .000000000000D+00  .231400000000D+04  .000000000000D+00
      .400000000000D+01  .000000000000D+00 -.884756445885D-08  .850000000000D+02
      .462332000000D+06  .000000000000D+00
G13 2024 05 17 12 00 00  .651158858091D-03  .284217094304D-11  .000000000000D+00
      .310000000000D+02 -.546562500000D+02  .442911306177D-08  .775697773052D+00
     -.295415520668D-05  .803201587405D-02  .713765621185D-05  .515365788269D+04
      .475200000000D+06 -.465661287308D-07 -.177784963400D+01  .745058059692D-07
      .971051006709D+00  .247375000000D+03  .922447781550D+00 -.817748348215D-08
     -.175721605224D-09  .000000000000D+00  .231400000000D+04  .000000000000D+00
      .400000000000D+01  .000000000000D+00 -.111758708954D-07  .310000000000D+02
      .462332000000D+06  .000000000000D+00
